ONEWEB-0687             
1 61595U 24188B   25337.69513897  .00000079  00000+0  17120-3 0  9996
2 61595  87.9108  44.7724 0001237 115.1904 244.9356 13.17651907 60158
ONEWEB-0688             
1 61596U 24188C   25337.72382275  .00000529  00000+0  13287-2 0  9994
2 61596  87.9110  44.7674 0001967 142.0432 218.0838 13.17652060 60159
ONEWEB-0689             
1 61597U 24188D   25337.79473748 -.00000510  00000+0 -14745-2 0  9990
2 61597  87.8853  59.9457 0001344 102.4011 257.7268 13.11415931 58840
ONEWEB-0690             
1 61598U 24188E   25337.72861715 -.00000425  00000+0 -12350-2 0  9994
2 61598  87.8876  59.9698 0002395 100.6762 259.4636 13.11418766 59010
ONEWEB-0691             
1 61599U 24188F   25337.79983756 -.00001404  00000+0 -39991-2 0  9990
2 61599  87.8841  59.8603 0001616 119.9233 240.2055 13.11409789 58870
ONEWEB-0692             
1 61600U 24188G   25337.66758021  .00000070  00000+0  16240-3 0  9993
2 61600  87.8858  60.0289 0001566  70.2388 289.8909 13.11419132 58846
ONEWEB-0693             
1 61601U 24188H   25337.73564975  .00000050  00000+0  94691-4 0  9990
2 61601  87.9110  44.7843 0002557 105.9794 254.1619 13.17648368 60142
ONEWEB-0695             
1 61602U 24188J   25337.79643306 -.00000480  00000+0 -13916-2 0  9991
2 61602  87.8860  59.9924 0001211  89.0321 271.0945 13.11416620 58859
